BEIDOU 3 (C01)          
1 36287U 10001A   22008.60028148 -.00000280  00000+0  00000+0 0  9998
2 36287   1.8137  45.9598 0001704  54.1934   4.4431  1.00274567 43911
BEIDOU 5 (C06)          
1 36828U 10036A   22008.23739297 -.00000069  00000+0  00000+0 0  9995
2 36828  54.1867 177.6998 0027055 177.5848 304.3812  1.00293000 41973
BEIDOU 6 (C04)          
1 37210U 10057A   22007.86080150 -.00000115  00000+0  00000+0 0  9991
2 37210   0.8809  49.5204 0005947 162.3062   5.3440  1.00268934 41025
BEIDOU 7 (C07)          
1 37256U 10068A   22008.23101159 -.00000206  00000+0  00000+0 0  9999
2 37256  50.4984 291.5605 0017874 191.6340 172.7200  1.00299802 40547
BEIDOU 8 (C08)          
1 37384U 11013A   22008.56744417 -.00000190  00000+0  00000+0 0  9990
2 37384  60.0634  55.8479 0021615 192.1624 169.9894  1.00297273 39429
BEIDOU 9 (C09)          
1 37763U 11038A   22007.95428413 -.00000027  00000+0  00000+0 0  9994
2 37763  54.4708 180.1756 0086902 225.1313 141.1168  1.00267854 38394
BEIDOU 10 (C10)         
1 37948U 11073A   22008.47917802 -.00000162  00000+0  00000+0 0  9991
2 37948  50.6104 291.1914 0078451 219.4819 224.2329  1.00288870 37159
BEIDOU 11 (C05)         
1 38091U 12008A   22007.91243473  .00000055  00000+0  00000+0 0  9994
2 38091   2.0045  71.6963 0006525 275.1288 147.7893  1.00269745 36223
BEIDOU 12 (C11)         
1 38250U 12018A   22008.40203431 -.00000093  00000+0  00000+0 0  9990
2 38250  56.7305 358.8463 0024887 253.5847 289.5536  1.86234347 66105
BEIDOU 13 (C12)         
1 38251U 12018B   22007.64932816 -.00000093  00000+0  00000+0 0  9992
2 38251  56.6527 358.2063 0015596 258.2939 184.4720  1.86234191 66095
BEIDOU 15 (C14)         
1 38775U 12050B   22008.31318147 -.00000010  00000+0  00000+0 0  9998
2 38775  55.3113 117.0782 0011888 323.3487  41.4148  1.86231246 63488
BEIDOU 16 (C02)         
1 38953U 12059A   22008.13382804 -.00000176  00000+0  00000+0 0  9999
2 38953   1.5946  84.5557 0011554 279.5489 235.7706  1.00271578 33792
BEIDOU 17 (C31)         
1 40549U 15019A   22008.29240852 -.00000193  00000+0  00000+0 0  9994
2 40549  52.1602 314.6156 0035745 191.5064 163.2654  1.00276204 24821
BEIDOU 18 (C57)         
1 40748U 15037A   22008.46912521 -.00000095  00000+0  00000+0 0  9994
2 40748  55.9071 357.1411 0004028 331.7186 210.3648  1.86233338 43937
BEIDOU 19 (C58)         
1 40749U 15037B   22008.27259385 -.00000095  00000+0  00000+0 0  9996
2 40749  55.9112 357.1380 0006801 303.7510 241.7443  1.86232142 43922
BEIDOU 20 (C18)         
1 40938U 15053A   22008.23380441 -.00000140  00000+0  00000+0 0  9999
2 40938  51.7474 277.7156 0042969 194.7436 175.2546  1.00282637 23096
BEIDOU IGSO-6 (C13)     
1 41434U 16021A   22008.08868912 -.00000167  00000+0  00000+0 0  9993
2 41434  57.8625  54.5034 0045088 216.3623 324.6054  1.00272954 21221
BEIDOU-2 G7 (C03)       
1 41586U 16037A   22008.28502890 -.00000355  00000+0  00000+0 0  9999
2 41586   1.6245  66.8170 0008313   2.3041 251.8153  1.00273472 20538
BEIDOU-3 M1 (C19)       
1 43001U 17069A   22007.53848620 -.00000005  00000+0  00000+0 0  9992
2 43001  55.4646 117.0839 0008265 284.2604  77.2420  1.86231607 28406
BEIDOU-3 M2 (C20)       
1 43002U 17069B   22007.90765572 -.00000007  00000+0  00000+0 0  9990
2 43002  55.4647 117.1070 0006496 310.0115 342.2008  1.86231304 28394
BEIDOU-3 M3 (C27)       
1 43107U 18003A   22007.49281149 -.00000096  00000+0  00000+0 0  9990
2 43107  55.3555 358.1633 0003630  37.4663 142.5978  1.86232464 27152
BEIDOU-3 M4 (C28)       
1 43108U 18003B   22007.43394015 -.00000096  00000+0  00000+0 0  9992
2 43108  55.3498 358.1560 0004150 258.7603 286.6241  1.86230894 27156
BEIDOU-3 M5 (C21)       
1 43207U 18018A   22007.60393234 -.00000006  00000+0  00000+0 0  9990
2 43207  55.4231 117.2010 0003976 341.6359  18.3415  1.86231464 26540
BEIDOU-3 M6 (C22)       
1 43208U 18018B   22007.67063051 -.00000006  00000+0  00000+0 0  9999
2 43208  55.4229 117.2036 0006238 296.6872  63.2405  1.86231602 26541
BEIDOU-3 M7 (C29)       
1 43245U 18029A   22007.71161825 -.00000096  00000+0  00000+0 0  9994
2 43245  55.2772 355.9356 0001440 285.4336 311.6568  1.86232574 25694
BEIDOU-3 M8 (C30)       
1 43246U 18029B   22008.52242976 -.00000096  00000+0  10000-3 0  9997
2 43246  55.2742 355.9384 0004458 337.8894 129.2155  1.86232832 25700
BEIDOU IGSO-7 (C16)     
1 43539U 18057A   22007.89215949 -.00000078  00000+0  00000+0 0  9997
2 43539  55.0656 177.1288 0040291 220.4311 143.3480  1.00259089 12905
BEIDOU-3 M9 (C23)       
1 43581U 18062A   22008.45083358  .00000023  00000+0  00000+0 0  9999
2 43581  54.3265 237.5668 0003124 315.4613 314.1916  1.86231915 23442
BEIDOU-3 M10 (C24)      
1 43582U 18062B   22008.31174453  .00000022  00000+0  00000+0 0  9991
2 43582  54.3258 237.5619 0006848  13.8891 254.1351  1.86232353 23447
BEIDOU-3 M11 (C25)      
1 43602U 18067A   22007.79129215  .00000022  00000+0  00000+0 0  9996
2 43602  54.4051 236.1805 0007936   9.8942 310.8937  1.86231568 22924
BEIDOU-3 M12 (C26)      
1 43603U 18067B   22008.26606365  .00000024  00000+0  00000+0 0  9998
2 43603  54.4018 236.1303 0005016   3.1365 186.3754  1.86231511 22958
BEIDOU-3 M13 (C32)      
1 43622U 18072A   22007.83613015 -.00000008  00000+0  00000+0 0  9990
2 43622  55.3892 116.7536 0005038 274.6062  16.4385  1.86231448 22450
BEIDOU-3 M14 (C33)      
1 43623U 18072B   22008.35193414 -.00000011  00000+0  00000+0 0  9999
2 43623  55.3914 116.7285 0002933 307.9844  59.1156  1.86231442 22472
BEIDOU-3 M15 (C34)      
1 43647U 18078A   22008.09390513 -.00000096  00000+0  10000-3 0  9999
2 43647  55.1711 356.0938 0006965 348.6170 100.8106  1.86232416 21973
BEIDOU-3 M16 (C35)      
1 43648U 18078B   22008.20744238 -.00000097  00000+0  00000+0 0  9996
2 43648  55.1667 356.0975 0004431 352.8404  80.8008  1.86232224 21995
BEIDOU-3 G1 (C59)       
1 43683U 18085A   22008.24127411 -.00000279  00000+0  00000+0 0  9997
2 43683   0.8459 195.2681 0004279  59.3272  79.9301  1.00265872 11792
BEIDOU-3 M17 (C36)      
1 43706U 18093A   22007.17624735  .00000019  00000+0  00000+0 0  9995
2 43706  54.4071 237.4833 0007782 286.2779  73.7084  1.86231926 21334
BEIDOU-3 M18 (C37)      
1 43707U 18093B   22008.51886170  .00000024  00000+0  00000+0 0  9994
2 43707  54.4079 237.4293 0007852 315.9038 315.3146  1.86232196 21344
BEIDOU-3 IGSO-1 (C38)   
1 44204U 19023A   22008.37761311 -.00000226  00000+0  00000+0 0  9999
2 44204  56.3214  54.7009 0022754 193.8034 112.8376  1.00259162 10106
BEIDOU-2 G8             
1 44231U 19027A   22008.26858943 -.00000248  00000+0  00000+0 0  9993
2 44231   0.4960  63.3894 0006181 149.1890 136.4424  1.00268899  9811
BEIDOU-3 IGSO-2 (C39)   
1 44337U 19035A   22007.85234132 -.00000086  00000+0  00000+0 0  9991
2 44337  55.1044 173.1618 0020765 176.9110 180.3572  1.00249343  9432
BEIDOU-3 M23 (C45)      
1 44542U 19061A   22007.66242822  .00000020  00000+0  10000-3 0  9994
2 44542  54.6335 237.5770 0009031 347.8485  21.5906  1.86231575 15591
BEIDOU-3 M24 (C46)      
1 44543U 19061B   22008.25646823  .00000022  00000+0  10000-3 0  9992
2 44543  54.6311 237.5273 0006033 346.5825 332.2218  1.86231699 15592
BEIDOU-3 IGSO-3         
1 44709U 19073A   22007.78079149 -.00000199  00000+0  00000+0 0  9998
2 44709  57.5240 298.0500 0017962 185.3706  22.7312  1.00255794  8196
BEIDOU-3 M21            
1 44793U 19078A   22008.11356279 -.00000097  00000+0  10000-3 0  9998
2 44793  55.0206 356.1355 0006421 354.6158  62.1507  1.86232241 14465
BEIDOU-3 M22            
1 44794U 19078B   22007.61936773 -.00000097  00000+0  00000+0 0  9991
2 44794  54.9940 356.1470 0004507 346.4496  10.3390  1.86232723 14442
BEIDOU-3 M19            
1 44864U 19090A   22007.76940218 -.00000007  00000+0  00000+0 0  9999
2 44864  55.3244 116.9766 0015650 263.3181  28.6113  1.86231750 14030
BEIDOU-3 M20            
1 44865U 19090B   22008.17755213 -.00000009  00000+0  00000+0 0  9997
2 44865  55.3265 116.9934 0013636 278.8287  16.6395  1.86231698 14019
BEIDOU-3 G2             
1 45344U 20017A   22007.84484056 -.00000141  00000+0  00000+0 0  9995
2 45344   2.1954 344.5923 0000216 139.3651   7.6037  1.00271993  7013
BEIDOU-3 G3             
1 45807U 20040A   22008.49688457 -.00000351  00000+0  00000+0 0  9991
2 45807   1.8083 300.0781 0008858 347.2408 110.0907  1.00272171  5837
